ORBCOMM FM33            
1 25983U 99065D   26013.26638971  .00000866  00000+0  31350-3 0  9994
2 25983  45.0289  79.7341 0006435  32.9129 327.2120 14.40630411366356
ORBCOMM FM36            
1 25984U 99065E   26013.15394909  .00000748  00000+0  28726-3 0  9995
2 25984  45.0374 175.3733 0002689 258.0166 102.0382 14.38802286364657
ORBCOMM FM35            
1 25985U 99065F   26013.14987650  .00000746  00000+0  29269-3 0  9997
2 25985  45.0377 182.1446 0003011  16.7084 343.3863 14.37705085364995
ORBCOMM FM34            
1 25986U 99065G   26013.18717921  .00000675  00000+0  26960-3 0  9990
2 25986  45.0373 182.4479 0003064 313.1585  46.9007 14.37641662365110
ORBCOMM FM38            
1 33060U 08031A   26013.05670208  .00001412  00000+0  20103-3 0  9990
2 33060  48.4403  34.3188 0005099 234.2170 125.8272 14.82430804945870
ORBCOMM FM41            
1 33061U 08031B   26013.12887314  .00001332  00000+0  19313-3 0  9999
2 33061  48.4448  42.5021 0004168 220.5183 181.0886 14.81976148945369
ORBCOMM FM29            
1 33062U 08031C   26013.16337100  .00001400  00000+0  20089-3 0  9995
2 33062  48.4399  49.8572 0005845 217.4181 186.2309 14.82135640945285
ORBCOMM FM39            
1 33063U 08031D   26013.26471658  .00001269  00000+0  19143-3 0  9996
2 33063  48.4409  76.0431 0006488 186.6209 173.4622 14.80556114944912
